{"type": "FeatureCollection", "features": [ {"type": "Feature", "properties": {"norad_id": 41836, "name": "HIMAWARI-9", "group": "weather", "lat": -0.02298066643006969, "lon": -55.152256901681135, "alt_km": 35782.07534451884, "timestamp": "2025-12-09T05:43:20.369878+00:00", "meta": {"OBJECT_NAME": "HIMAWARI-9", "OBJECT_ID": "2016-064A", "EPOCH": "2025-12-08T19:24:34.983072", "MEAN_MOTION": 1.0027232, "ECCENTRICITY": 0.0001231, "INCLINATION": 0.0202, "RA_OF_ASC_NODE": 66.6423, "ARG_OF_PERICENTER": 196.7775, "MEAN_ANOMALY": 246.3088, "EPHEMERIS_TYPE": 0, "CLASSIFICATION_TYPE": "U", "NORAD_CAT_ID": 41836, "ELEMENT_SET_NO": 999, "REV_AT_EPOCH": 3330, "BSTAR": 0, "MEAN_MOTION_DOT": -2.72e-06, "MEAN_MOTION_DDOT": 0}, "tle": {"line1": "1 41836U 16064A   25342.80873823 -.00000272  00000+0  00000+0 0  9994", "line2": "2 41836   0.0202  66.6423 0001231 196.7775 246.3088  1.00272320 33301"}}, "geometry": {"type": "Point", "coordinates": [-55.152256901681135, -0.02298066643006969]}}, {"type": "Feature", "properties": {"norad_id": 41866, "name": "GOES 16", "group": "weather", "lat": -0.02243696908147899, "lon": 59.40666273747691, "alt_km": 35799.85494541792, "timestamp": "2025-12-09T05:43:20.369894+00:00", "meta": {"OBJECT_NAME": "GOES 16", "OBJECT_ID": "2016-071A", "EPOCH": "2025-12-08T16:31:50.426976", "MEAN_MOTION": 1.00270857, "ECCENTRICITY": 0.0003424, "INCLINATION": 0.0682, "RA_OF_ASC_NODE": 102.9422, "ARG_OF_PERICENTER": 157.8049, "MEAN_ANOMALY": 320.234, "EPHEMERIS_TYPE": 0, "CLASSIFICATION_TYPE": "U", "NORAD_CAT_ID": 41866, "ELEMENT_SET_NO": 999, "REV_AT_EPOCH": 3319, "BSTAR": 0, "MEAN_MOTION_DOT": -8.9e-07, "MEAN_MOTION_DDOT": 0}, "tle": {"line1": "1 41866U 16071A   25342.68877809 -.00000089  00000+0  00000+0 0  9995", "line2": "2 41866   0.0682 102.9422 0003424 157.8049 320.2340  1.00270857 33190"}}, "geometry": {"type": "Point", "coordinates": [59.40666273747691, -0.02243696908147899]}}, {"type": "Feature", "properties": {"norad_id": 41882, "name": "FENGYUN 4A", "group": "weather", "lat": -0.8112510615150205, "lon": -72.0532387452594, "alt_km": 35775.51677776117, "timestamp": "2025-12-09T05:43:20.369907+00:00", "meta": {"OBJECT_NAME": "FENGYUN 4A", "OBJECT_ID": "2016-077A", "EPOCH": "2025-12-08T17:16:38.775072", "MEAN_MOTION": 1.00275455, "ECCENTRICITY": 0.0004933, "INCLINATION": 1.839, "RA_OF_ASC_NODE": 82.4323, "ARG_OF_PERICENTER": 143.079, "MEAN_ANOMALY": 235.2066, "EPHEMERIS_TYPE": 0, "CLASSIFICATION_TYPE": "U", "NORAD_CAT_ID": 41882, "ELEMENT_SET_NO": 999, "REV_AT_EPOCH": 3302, "BSTAR": 0, "MEAN_MOTION_DOT": -3.55e-06, "MEAN_MOTION_DDOT": 0}, "tle": {"line1": "1 41882U 16077A   25342.71989323 -.00000355  00000+0  00000+0 0  9994", "line2": "2 41882   1.8390  82.4323 0004933 143.0790 235.2066  1.00275455 33022"}}, "geometry": {"type": "Point", "coordinates": [-72.0532387452594, -0.8112510615150205]}}, {"type": "Feature", "properties": {"norad_id": 41884, "name": "CYGFM05", "group": "weather", "lat": -34.66589725373844, "lon": -28.182390219152865, "alt_km": 428.8463132006018, "timestamp": "2025-12-09T05:43:20.369919+00:00", "meta": {"OBJECT_NAME": "CYGFM05", "OBJECT_ID": "2016-078A", "EPOCH": "2025-12-08T16:12:15.133824", "MEAN_MOTION": 15.47410776, "ECCENTRICITY": 0.0009639, "INCLINATION": 34.9598, "RA_OF_ASC_NODE": 73.6774, "ARG_OF_PERICENTER": 145.1655, "MEAN_ANOMALY": 214.9699, "EPHEMERIS_TYPE": 0, "CLASSIFICATION_TYPE": "U", "NORAD_CAT_ID": 41884, "ELEMENT_SET_NO": 999, "REV_AT_EPOCH": 49913, "BSTAR": 0.00049403, "MEAN_MOTION_DOT": 0.00026159, "MEAN_MOTION_DDOT": 0}, "tle": {"line1": "1 41884U 16078A   25342.67517516  .00026159  00000+0  49403-3 0  9996", "line2": "2 41884  34.9598  73.6774 0009639 145.1655 214.9699 15.47410776499131"}}, "geometry": {"type": "Point", "coordinates": [-28.182390219152865, -34.66589725373844]}}, {"type": "Feature", "properties": {"norad_id": 41885, "name": "CYGFM04", "group": "weather", "lat": 32.94997970188212, "lon": 156.6632558622329, "alt_km": 408.2567514582706, "timestamp": "2025-12-09T05:43:20.369930+00:00", "meta": {"OBJECT_NAME": "CYGFM04", "OBJECT_ID": "2016-078B", "EPOCH": "2025-12-08T13:48:05.285088", "MEAN_MOTION": 15.50097993, "ECCENTRICITY": 0.0009015, "INCLINATION": 34.9353, "RA_OF_ASC_NODE": 49.227, "ARG_OF_PERICENTER": 173.4437, "MEAN_ANOMALY": 186.6404, "EPHEMERIS_TYPE": 0, "CLASSIFICATION_TYPE": "U", "NORAD_CAT_ID": 41885, "ELEMENT_SET_NO": 999, "REV_AT_EPOCH": 49929, "BSTAR": 0.00050242, "MEAN_MOTION_DOT": 0.00029253, "MEAN_MOTION_DDOT": 0}, "tle": {"line1": "1 41885U 16078B   25342.57506117  .00029253  00000+0  50242-3 0  9992", "line2": "2 41885  34.9353  49.2270 0009015 173.4437 186.6404 15.50097993499293"}}, "geometry": {"type": "Point", "coordinates": [156.6632558622329, 32.94997970188212]}}, {"type": "Feature", "properties": {"norad_id": 41886, "name": "CYGFM02", "group": "weather", "lat": 33.77649342197992, "lon": 149.9356859849125, "alt_km": 404.21328842182356, "timestamp": "2025-12-09T05:43:20.369947+00:00", "meta": {"OBJECT_NAME": "CYGFM02", "OBJECT_ID": "2016-078C", "EPOCH": "2025-12-08T13:50:02.361408", "MEAN_MOTION": 15.51459598, "ECCENTRICITY": 0.0010683, "INCLINATION": 34.9442, "RA_OF_ASC_NODE": 47.5977, "ARG_OF_PERICENTER": 172.6655, "MEAN_ANOMALY": 187.4225, "EPHEMERIS_TYPE": 0, "CLASSIFICATION_TYPE": "U", "NORAD_CAT_ID": 41886, "ELEMENT_SET_NO": 999, "REV_AT_EPOCH": 49942, "BSTAR": 0.00050542, "MEAN_MOTION_DOT": 0.00030924, "MEAN_MOTION_DDOT": 0}, "tle": {"line1": "1 41886U 16078C   25342.57641622  .00030924  00000+0  50542-3 0  9994", "line2": "2 41886  34.9442  47.5977 0010683 172.6655 187.4225 15.51459598499423"}}, "geometry": {"type": "Point", "coordinates": [149.9356859849125, 33.77649342197992]}}, {"type": "Feature", "properties": {"norad_id": 41887, "name": "CYGFM01", "group": "weather", "lat": -29.6969441373227, "lon": 17.606472670147518, "alt_km": 430.1194832477104, "timestamp": "2025-12-09T05:43:20.369969+00:00", "meta": {"OBJECT_NAME": "CYGFM01", "OBJECT_ID": "2016-078D", "EPOCH": "2025-12-08T16:03:02.145312", "MEAN_MOTION": 15.47982626, "ECCENTRICITY": 0.0009184, "INCLINATION": 34.9428, "RA_OF_ASC_NODE": 76.0976, "ARG_OF_PERICENTER": 136.6674, "MEAN_ANOMALY": 223.4771, "EPHEMERIS_TYPE": 0, "CLASSIFICATION_TYPE": "U", "NORAD_CAT_ID": 41887, "ELEMENT_SET_NO": 999, "REV_AT_EPOCH": 49907, "BSTAR": 0.00050736, "MEAN_MOTION_DOT": 0.00027409, "MEAN_MOTION_DDOT": 0}, "tle": {"line1": "1 41887U 16078D   25342.66877483  .00027409  00000+0  50736-3 0  9990", "line2": "2 41887  34.9428  76.0976 0009184 136.6674 223.4771 15.47982626499075"}}, "geometry": {"type": "Point", "coordinates": [17.606472670147518, -29.6969441373227]}}, {"type": "Feature", "properties": {"norad_id": 41888, "name": "CYGFM08", "group": "weather", "lat": -14.929335090528422, "lon": 32.95958130439121, "alt_km": 426.9369370124559, "timestamp": "2025-12-09T05:43:20.369984+00:00", "meta": {"OBJECT_NAME": "CYGFM08", "OBJECT_ID": "2016-078E", "EPOCH": "2025-12-08T14:22:18.111936", "MEAN_MOTION": 15.49171763, "ECCENTRICITY": 0.0011072, "INCLINATION": 34.9463, "RA_OF_ASC_NODE": 59.5943, "ARG_OF_PERICENTER": 161.1133, "MEAN_ANOMALY": 199.0001, "EPHEMERIS_TYPE": 0, "CLASSIFICATION_TYPE": "U", "NORAD_CAT_ID": 41888, "ELEMENT_SET_NO": 999, "REV_AT_EPOCH": 49929, "BSTAR": 0.00050019, "MEAN_MOTION_DOT": 0.00028201, "MEAN_MOTION_DDOT": 0}, "tle": {"line1": "1 41888U 16078E   25342.59882074  .00028201  00000+0  50019-3 0  9990", "line2": "2 41888  34.9463  59.5943 0011072 161.1133 199.0001 15.49171763499299"}}, "geometry": {"type": "Point", "coordinates": [32.95958130439121, -14.929335090528422]}}, {"type": "Feature", "properties": {"norad_id": 41890, "name": "CYGFM07", "group": "weather", "lat": -24.444119530748, "lon": 3.7984645116554203, "alt_km": 422.8143062574227, "timestamp": "2025-12-09T05:43:20.370002+00:00", "meta": {"OBJECT_NAME": "CYGFM07", "OBJECT_ID": "2016-078G", "EPOCH": "2025-12-08T14:27:41.221152", "MEAN_MOTION": 15.49748278, "ECCENTRICITY": 0.0009451, "INCLINATION": 34.948, "RA_OF_ASC_NODE": 48.5742, "ARG_OF_PERICENTER": 178.7665, "MEAN_ANOMALY": 181.3082, "EPHEMERIS_TYPE": 0, "CLASSIFICATION_TYPE": "U", "NORAD_CAT_ID": 41890, "ELEMENT_SET_NO": 999, "REV_AT_EPOCH": 49931, "BSTAR": 0.00049171, "MEAN_MOTION_DOT": 0.00028275, "MEAN_MOTION_DDOT": 0}, "tle": {"line1": "1 41890U 16078G   25342.60256043  .00028275  00000+0  49171-3 0  9994", "line2": "2 41890  34.9480  48.5742 0009451 178.7665 181.3082 15.49748278499315"}}, "geometry": {"type": "Point", "coordinates": [3.7984645116554203, -24.444119530748]}}, {"type": "Feature", "properties": {"norad_id": 41891, "name": "CYGFM03", "group": "weather", "lat": 16.7960950115912, "lon": -159.29027168878915, "alt_km": 408.63009115516707, "timestamp": "2025-12-09T05:43:20.370020+00:00", "meta": {"OBJECT_NAME": "CYGFM03", "OBJECT_ID": "2016-078H", "EPOCH": "2025-12-08T15:09:54.108000", "MEAN_MOTION": 15.49651894, "ECCENTRICITY": 0.0008731, "INCLINATION": 34.9436, "RA_OF_ASC_NODE": 50.2977, "ARG_OF_PERICENTER": 166.471, "MEAN_ANOMALY": 193.6247, "EPHEMERIS_TYPE": 0, "CLASSIFICATION_TYPE": "U", "NORAD_CAT_ID": 41891, "ELEMENT_SET_NO": 999, "REV_AT_EPOCH": 49929, "BSTAR": 0.00050514, "MEAN_MOTION_DOT": 0.00028945, "MEAN_MOTION_DDOT": 0}, "tle": {"line1": "1 41891U 16078H   25342.63187625  .00028945  00000+0  50514-3 0  9994", "line2": "2 41891  34.9436  50.2977 0008731 166.4710 193.6247 15.49651894499295"}}, "geometry": {"type": "Point", "coordinates": [-159.29027168878915, 16.7960950115912]}}]}